{"version": 0.6, "generator": "Overpass API 0.7.62.7 375dc00a", "osm3s": {"timestamp_osm_base": "2025-06-30T11:40:14Z", "copyright": "The data included in this document is from www.openstreetmap.org. The data is made available under ODbL."}, "elements": [{"type": "node", "id": 246397026, "lat": 12.9936865, "lon": 77.5980003, "tags": {"internet_access": "wlan", "name": "Bangalore Cantonment", "name:kn": "\u0cac\u0cc6\u0c82\u0c97\u0cb3\u0cc2\u0cb0\u0cc1 (\u0c95\u0c82\u0c9f\u0cca\u0ca8\u0ccd\u0cae\u0cc6\u0c82\u0c9f\u0ccd)", "name:ml": "\u0d2c\u0d46\u0d02\u0d17\u0d33\u0d42\u0d30\u0d41 \u0d15\u0d28\u0d4d\u0d31\u0d4b\u0d7a\u0d2e\u0d46\u0d28\u0d4d\u0d31\u0d4d", "network": "IR", "operator": "SWR", "railway": "station", "ref": "BNC", "wheelchair": "yes", "wikidata": "Q17049564", "wikipedia": "en:Bangalore Cantonment railway station"}}, {"type": "node", "id": 253454039, "lat": 13.0011462, "lon": 77.6183453, "tags": {"internet_access": "no", "name": "Bengaluru East", "name:kn": "\u0cac\u0cc6\u0c82\u0c97\u0cb3\u0cc2\u0cb0\u0cc1 \u0caa\u0cc2\u0cb0\u0ccd\u0cb5", "name:ml": "\u0d2c\u0d46\u0d02\u0d17\u0d33\u0d42\u0d30\u0d41 \u0d15\u0d3f\u0d34\u0d15\u0d4d\u0d15\u0d4d", "name:ta": "\u0baa\u0bc6\u0b99\u0bcd\u0b95\u0bb3\u0bc2\u0bb0\u0bc1 \u0b95\u0bbf\u0bb4\u0b95\u0bcd\u0b95\u0bc1", "network": "IR", "operator": "SWR", "public_transport": "station", "railway": "station", "ref": "BNCE", "start_date": "1906", "wheelchair": "yes", "wikidata": "Q23091326", "wikipedia": "en:Bangalore East railway station"}}, {"type": "node", "id": 308062102, "lat": 12.9176571, "lon": 77.4837568, "tags": {"addr:city": "Bengaluru", "internet_access": "wlan", "name": "Kengeri", "name:kn": "\u0c95\u0cc6\u0c82\u0c97\u0cc7\u0cb0\u0cbf", "name:ml": "\u0d15\u0d46\u0d19\u0d4d\u0d15\u0d47\u0d30\u0d3f", "network": "IR", "operator": "SWR", "public_transport": "station", "railway": "station", "ref": "KGI", "train": "yes", "wikidata": "Q24949818", "wikipedia": "en:Kengeri railway station"}}, {"type": "node", "id": 308062851, "lat": 12.9413253, "lon": 77.5212118, "tags": {"internet_access": "no", "name": "Nayandahalli", "name:kn": "\u0ca8\u0cbe\u0caf\u0c82\u0ca1\u0cb9\u0cb3\u0ccd\u0cb3\u0cbf", "name:ml": "\u0d28\u0d3e\u0d2f\u0d23\u0d4d\u0d1f\u0d39\u0d33\u0d4d\u0d33\u0d3f", "network": "IR", "operator": "SWR", "platforms": "3", "public_transport": "station", "railway": "station", "ref": "NYH", "wikidata": "Q55624883", "wikipedia": "en:Nayandahalli railway station"}}, {"type": "node", "id": 308073351, "lat": 13.0746787, "lon": 77.5056373, "tags": {"internet_access": "no", "name": "Chikka Banavara", "name:kn": "\u0c9a\u0cbf\u0c95\u0ccd\u0c95 \u0cac\u0cbe\u0ca3\u0cb5\u0cbe\u0cb0", "network": "IR", "operator": "SWR", "public_transport": "station", "railway": "station", "ref": "BAW", "wikidata": "Q63355771"}}, {"type": "node", "id": 338274462, "lat": 13.1050067, "lon": 77.5918938, "tags": {"internet_access": "no", "name": "Yelahanka Junction", "name:hi": "\u092f\u0932\u0939\u0902\u0915\u093e \u091c\u0902\u0915\u094d\u0936\u0928", "name:kn": "\u0caf\u0cb2\u0cb9\u0c82\u0c95 \u0c9c\u0c82\u0c95\u0ccd\u0cb7\u0ca8\u0ccd", "name:ml": "\u0d2f\u0d46\u0d32\u0d39\u0d19\u0d4d\u0d15 \u0d1c\u0d02\u0d17\u0d4d\u0d37\u0d7b", "network": "IR", "operator": "SWR", "public_transport": "station", "railway": "station", "ref": "YNK", "train": "yes", "wheelchair": "limited", "wikidata": "Q60569660"}}, {"type": "node", "id": 443807288, "lat": 13.0058357, "lon": 77.6281321, "tags": {"internet_access": "no", "name": "Banaswadi", "name:kn": "\u0cac\u0cbe\u0ca3\u0cb8\u0cb5\u0cbe\u0ca1\u0cbf", "network": "IR", "operator": "SWR", "public_transport": "station", "railway": "station", "ref": "BAND", "wheelchair": "no", "wikidata": "Q58814851"}}, {"type": "node", "id": 443811552, "lat": 13.0118566, "lon": 77.6628136, "tags": {"internet_access": "no", "name": "Channasandra", "name:kn": "\u0c9a\u0ca8\u0ccd\u0ca8\u0cb8\u0c82\u0ca6\u0ccd\u0cb0", "name:ml": "\u0d1a\u0d28\u0d4d\u0d28\u0d38\u0d28\u0d4d\u0d26\u0d4d\u0d30", "network": "IR", "operator": "SWR", "public_transport": "station", "railway": "station", "ref": "CSDR", "wikidata": "Q63354822"}}, {"type": "node", "id": 1177155562, "lat": 12.9912092, "lon": 77.6517139, "tags": {"internet_access": "no", "name": "Baiyyappanahalli Junction", "name:kn": "\u0cac\u0cc8\u0caf\u0caa\u0ccd\u0caa\u0ca8\u0cb9\u0cb3\u0ccd\u0cb3\u0cbf", "name:ml": "\u0d2c\u0d48\u0d2f\u0d2a\u0d4d\u0d2a\u0d28\u0d39\u0d33\u0d4d\u0d33\u0d3f", "network": "IR", "operator": "SWR", "public_transport": "station", "railway": "station", "ref": "BYPL", "train": "yes", "wikidata": "Q55604734", "wikipedia": "en:Baiyyappanahalli railway station"}}, {"type": "node", "id": 1177192092, "lat": 13.0005931, "lon": 77.675283}, {"type": "node", "id": 1177705836, "lat": 12.9963995, "lon": 77.7614229, "tags": {"internet_access": "no", "name": "Whitefield", "name:kn": "\u0cb5\u0cc8\u0c9f\u0ccd\u200c\u0cab\u0cc0\u0cb2\u0ccd\u0ca1\u0ccd", "name:ml": "\u0d35\u0d48\u0d31\u0d4d\u0d31\u0d4d\u0d2b\u0d40\u0d7d\u0d21\u0d4d", "network": "IR", "operator": "SWR", "public_transport": "station", "railway": "station", "ref": "WFD", "train": "yes", "wikidata": "Q59155364", "wikipedia": "en:Whitefield (Bangalore) railway station"}}, {"type": "node", "id": 1463736886, "lat": 13.04347, "lon": 77.5630839, "tags": {"alt_name": "Lotte Gollahalli", "name": "Lottegollahalli", "name:kn": "\u0cb2\u0cca\u0c9f\u0ccd\u0c9f\u0cc6\u0c97\u0cca\u0cb2\u0ccd\u0cb2\u0cb9\u0cb3\u0ccd\u0cb3\u0cbf", "network": "IR", "operator": "SWR", "public_transport": "station", "railway": "station", "ref": "LOGH", "train": "yes", "wheelchair": "limited", "wikidata": "Q63369890"}}, {"type": "node", "id": 1576973980, "lat": 13.0500898, "lon": 77.4944461, "tags": {"code": "MNJN", "name": "Manjunathanagara", "name:kn": "\u0cae\u0c82\u0c9c\u0cc1\u0ca8\u0cbe\u0ca5\u0ca8\u0c97\u0cb0", "network": "Namma Metro", "network:wikidata": "Q279343", "note": "Contributors are requested to not edit the \"network\" and the \"operator\" tags. (2023/11/08)", "old_name": "Jindal", "operator": "Bangalore Metro Rail Corporation Limited", "public_transport": "station", "public_transport:version": "2", "railway": "station", "shelter": "yes", "start_date": "2024-11-07", "station": "subway", "subway": "yes", "website": "https://english.brmc.co.in", "wheelchair": "yes", "wikidata": "Q122143726", "wikipedia": "en:Manjunathanagara metro station"}}, {"type": "node", "id": 2669084978, "lat": 12.9781739, "lon": 77.5695603, "tags": {"internet_access": "wlan", "name": "Krantivira Sangolli Rayanna (Bengaluru)", "name:kn": "\u0c95\u0ccd\u0cb0\u0cbe\u0c82\u0ca4\u0cbf\u0cb5\u0cc0\u0cb0 \u0cb8\u0c82\u0c97\u0cca\u0cb3\u0ccd\u0cb3\u0cbf \u0cb0\u0cbe\u0caf\u0ca3\u0ccd\u0ca3 \u0cb0\u0cc8\u0cb2\u0ccd\u0cb5\u0cc6 \u0ca8\u0cbf\u0cb2\u0ccd\u0ca6\u0cbe\u0ca3", "name:ml": "\u0d15\u0d4d\u0d30\u0d3e\u0d28\u0d4d\u0d24\u0d3f\u0d35\u0d40\u0d30 \u0d38\u0d19\u0d4d\u0d15\u0d4a\u0d32\u0d4d\u0d32\u0d3f \u0d30\u0d3e\u0d2f\u0d23\u0d4d\u0d23 \u0d31\u0d46\u0d2f\u0d3f\u0d7d\u0d35\u0d47 \u0d38\u0d4d\u0d31\u0d4d\u0d31\u0d47\u0d37\u0d7b", "name:te": "\u0c15\u0c4d\u0c30\u0c3e\u0c02\u0c24\u0c3f\u0c35\u0c40\u0c30 \u0c38\u0c02\u0c17\u0c4a\u0c32\u0c4d\u0c32\u0c3f \u0c30\u0c3e\u0c2f\u0c28\u0c4d\u0c28 \u0c30\u0c48\u0c32\u0c4d\u0c35\u0c47 \u0c38\u0c4d\u0c1f\u0c47\u0c37\u0c28\u0c4d", "network": "IR", "old_name": "Bangalore City Junction", "operator": "SWR", "public_transport": "station", "railway": "station", "ref": "SBC", "short_name": "KSR Bengaluru", "wheelchair": "yes", "wikidata": "Q3633970"}}, {"type": "node", "id": 2967308931, "lat": 13.0237734, "lon": 77.5507701, "tags": {"designation": "YPR", "name": "Yesvantpur Junction", "name:kn": "\u0caf\u0cb6\u0cb5\u0c82\u0ca4\u0caa\u0cc1\u0cb0 \u0c9c\u0c82\u0c95\u0ccd\u0cb7\u0ca8\u0ccd", "name:ml": "\u0d2f\u0d36\u0d4d\u0d35\u0d28\u0d4d\u0d24\u0d4d\u0d2a\u0d42\u0d7c \u0d1c\u0d02\u0d17\u0d4d\u0d37\u0d7b", "network": "IR", "operator": "SWR", "platforms": "6", "public_transport": "station", "railway": "station", "ref": "YPR", "wheelchair": "yes", "wikidata": "Q8052904", "wikipedia": "en:Yesvantpur Junction railway station"}}, {"type": "node", "id": 2967312447, "lat": 13.0425476, "lon": 77.5862489, "tags": {"internet_access": "no", "name": "Hebbal", "name:kn": "\u0cb9\u0cc6\u0cac\u0ccd\u0cac\u0cbe\u0cb3\u0cc1", "network": "IR", "operator": "SWR", "public_transport": "station", "railway": "station", "ref": "HEB", "wheelchair": "limited", "wikidata": "Q63369894"}}, {"type": "node", "id": 4104269204, "lat": 12.9571649, "lon": 77.5382705}, {"type": "node", "id": 4104269205, "lat": 12.9579595, "lon": 77.5390161}, {"type": "node", "id": 4104269206, "lat": 12.9579124, "lon": 77.5390591}, {"type": "node", "id": 4104269207, "lat": 12.9571073, "lon": 77.5383241}, {"type": "node", "id": 4108417932, "lat": 13.0006306, "lon": 77.563476, "tags": {"internet_access": "no", "name": "Malleswaram", "name:kn": "\u0cae\u0cb2\u0ccd\u0cb2\u0cc7\u0cb6\u0ccd\u0cb5\u0cb0\u0c82", "network": "IR", "operator": "SWR", "public_transport": "station", "railway": "station", "ref": "MWM", "toilets:wheelchair": "no", "wheelchair": "yes", "wikidata": "Q63356763"}}, {"type": "node", "id": 4887713682, "lat": 13.027925, "lon": 77.5411714}, {"type": "node", "id": 4887713683, "lat": 13.0280387, "lon": 77.5409745}, {"type": "node", "id": 4887713684, "lat": 13.0280857, "lon": 77.5408943}, {"type": "node", "id": 4887713685, "lat": 13.0280745, "lon": 77.5409138}, {"type": "node", "id": 4887713686, "lat": 13.0280254, "lon": 77.5408577}, {"type": "node", "id": 4887713687, "lat": 13.0278653, "lon": 77.5411351}, {"type": "node", "id": 4887713688, "lat": 13.0281282, "lon": 77.5410289}, {"type": "node", "id": 4887713689, "lat": 13.0281641, "lon": 77.5409683}, {"type": "node", "id": 4887713694, "lat": 13.0282292, "lon": 77.5408557}, {"type": "node", "id": 4887713695, "lat": 13.0282622, "lon": 77.5407984}, {"type": "node", "id": 4887713696, "lat": 13.0284235, "lon": 77.5403291}, {"type": "node", "id": 4887713697, "lat": 13.0283113, "lon": 77.5405234}, {"type": "node", "id": 4887713698, "lat": 13.0283522, "lon": 77.5402858}, {"type": "node", "id": 4887713699, "lat": 13.0282041, "lon": 77.5405423}, {"type": "node", "id": 4887713700, "lat": 13.0283565, "lon": 77.5406351}, {"type": "node", "id": 4887713701, "lat": 13.0283933, "lon": 77.5405733}, {"type": "node", "id": 4887713702, "lat": 13.0283121, "lon": 77.5414257}, {"type": "node", "id": 4887713704, "lat": 13.0283691, "lon": 77.5414604}, {"type": "node", "id": 4887713705, "lat": 13.028592, "lon": 77.5410744}, {"type": "node", "id": 4887713706, "lat": 13.0284392, "lon": 77.5410912}, {"type": "node", "id": 4887713707, "lat": 13.0284871, "lon": 77.5410106}, {"type": "node", "id": 4887713708, "lat": 13.0283172, "lon": 77.5413025}, {"type": "node", "id": 4887713709, "lat": 13.0287666, "lon": 77.5405265}, {"type": "node", "id": 4887713710, "lat": 13.0285072, "lon": 77.5403761}, {"type": "node", "id": 4887713711, "lat": 13.0280518, "lon": 77.5411612}, {"type": "node", "id": 4887713712, "lat": 13.0285447, "lon": 77.5403989}, {"type": "node", "id": 4887713713, "lat": 13.0287077, "lon": 77.5404906}, {"type": "node", "id": 4887713715, "lat": 13.0280869, "lon": 77.5411826}, {"type": "node", "id": 4887713716, "lat": 13.0280109, "lon": 77.5413143}, {"type": "node", "id": 4887713717, "lat": 13.0281707, "lon": 77.5414116}, {"type": "node", "id": 4887713718, "lat": 13.0287985, "lon": 77.5403333}, {"type": "node", "id": 4887713719, "lat": 13.0286386, "lon": 77.5402361}, {"type": "node", "id": 5760197744, "lat": 12.9957428, "lon": 77.7579489, "tags": {"alt_name": "Kadugodi", "code": "WHTM", "colour": "#e542de", "name": "Whitefield (Kadugodi)", "name:kn": "\u0cb5\u0cc8\u0c9f\u0ccd\u200c\u0cab\u0cc0\u0cb2\u0ccd\u0ca1\u0ccd (\u0c95\u0cbe\u0ca1\u0cc1\u0c97\u0ccb\u0ca1\u0cbf)", "network": "Namma Metro", "note": "Contributors are requested to not edit the \"network\" and the \"operator\" tags. (2023/11/08)", "old_name": "Whitefield", "operator": "Bangalore Metro Rail Corporation Limited", "public_transport": "station", "railway": "station", "station": "subway", "subway": "yes", "wheelchair": "yes", "wikidata": "Q112683422", "wikipedia": "en:Whitefield (Kadugodi) metro station"}}, {"type": "node", "id": 5760197745, "lat": 12.9873426, "lon": 77.7538033, "tags": {"alt_name": "Hope Farm", "code": "UWVL", "colour": "#e542de", "name": "Hopefarm Channasandra", "name:kn": "\u0cb9\u0ccb\u0caa\u0ccd \u0cab\u0cbe\u0cb0\u0ccd\u0cae\u0ccd \u0c9a\u0ca8\u0ccd\u0ca8\u0cb8\u0c82\u0ca6\u0ccd\u0cb0", "name:ta": "\u0bb9\u0bcb\u0baa\u0bcd\u0b83\u0baa\u0bbe\u0bb0\u0bcd\u0bae\u0bcd \u0b9a\u0ba9\u0bcd\u0ba9\u0b9a\u0ba8\u0bcd\u0ba4\u0bcd\u0bb0\u0bbe", "network": "Namma Metro", "note": "Contributors are requested to not edit the \"network\" and the \"operator\" tags. (2023/11/08)", "old_name": "Channasandra", "operator": "Bangalore Metro Rail Corporation Limited", "public_transport": "station", "railway": "station", "station": "subway", "subway": "yes", "wheelchair": "yes", "wikipedia": "en:Channasandra metro station"}}, {"type": "node", "id": 5760197749, "lat": 12.9876393, "lon": 77.7377718, "tags": {"alt_name": "ITPL Main Gate", "code": "ITPL", "colour": "#e542de", "name": "Pattandur Agrahara", "name:kn": "\u0caa\u0c9f\u0ccd\u0c9f\u0c82\u0ca6\u0cc2\u0cb0\u0cc1 \u0c85\u0c97\u0ccd\u0cb0\u0cb9\u0cbe\u0cb0", "name:ta": "\u0baa\u0b9f\u0bcd\u0b9f\u0ba8\u0bcd\u0ba4\u0bc2\u0bb0\u0bcd \u0b85\u0b95\u0bcd\u0bb0\u0bb9\u0bbe\u0bb0\u0bbe", "network": "Namma Metro", "note": "Contributors are requested to not edit the \"network\" and the \"operator\" tags. (2023/11/08)", "operator": "Bangalore Metro Rail Corporation Limited", "public_transport": "station", "railway": "station", "station": "subway", "subway": "yes", "wheelchair": "yes", "wikipedia": "en:Pattandur Agrahara metro station"}}, {"type": "node", "id": 5760197751, "lat": 12.9811949, "lon": 77.7275361, "tags": {"alt_name": "Satya Sai Hospital", "code": "SSHP", "colour": "#e542de", "name": "Sri Sathya Sai Hospital", "name:kn": "\u0cb6\u0ccd\u0cb0\u0cc0 \u0cb8\u0ca4\u0ccd\u0caf \u0cb8\u0cbe\u0caf\u0cbf \u0c86\u0cb8\u0ccd\u0caa\u0ca4\u0ccd\u0cb0\u0cc6", "name:ta": "\u0bb8\u0bcd\u0bb0\u0bc0 \u0b9a\u0ba4\u0bcd\u0baf \u0b9a\u0bbe\u0baf\u0bcd \u0bae\u0bb0\u0bc1\u0ba4\u0bcd\u0ba4\u0bc1\u0bb5\u0bae\u0ba9\u0bc8", "network": "Namma Metro", "note": "Contributors are requested to not edit the \"network\" and the \"operator\" tags. (2023/11/08)", "operator": "Bangalore Metro Rail Corporation Limited", "public_transport": "station", "railway": "station", "station": "subway", "subway": "yes", "wheelchair": "yes", "wikipedia": "en:Sri Sathya Sai Hospital metro station"}}, {"type": "node", "id": 5760197754, "lat": 12.9766408, "lon": 77.7248845, "tags": {"alt_name": "Nallurhalli", "code": "VDHP", "colour": "#e542de", "name": "Nallurahalli", "name:kn": "\u0ca8\u0cb2\u0ccd\u0cb2\u0cc2\u0cb0\u0cb9\u0cb3\u0ccd\u0cb3\u0cbf", "name:ta": "\u0ba8\u0bb2\u0bcd\u0bb2\u0bc2\u0bb0\u0bb9\u0bb3\u0bcd\u0bb3\u0bbf", "network": "Namma Metro", "note": "Contributors are requested to not edit the \"network\" and the \"operator\" tags. (2023/11/08)", "operator": "Bangalore Metro Rail Corporation Limited", "public_transport": "station", "railway": "station", "station": "subway", "subway": "yes", "wheelchair": "yes", "wikipedia": "en:Nallurhalli metro station"}}, {"type": "node", "id": 5760197755, "lat": 12.977594, "lon": 77.7155586, "tags": {"code": "KDNH", "colour": "#e542de", "name": "Kundalahalli", "name:kn": "\u0c95\u0cc1\u0c82\u0ca6\u0cb2\u0cb9\u0cb3\u0ccd\u0cb3\u0cbf", "name:ta": "\u0b95\u0bc1\u0ba9\u0bcd\u0b9f\u0bb2\u0bb9\u0bb3\u0bcd\u0bb3\u0bbf", "network": "Namma Metro", "note": "Contributors are requested to not edit the \"network\" and the \"operator\" tags. (2023/11/08)", "operator": "Bangalore Metro Rail Corporation Limited", "public_transport": "station", "railway": "station", "station": "subway", "subway": "yes", "wheelchair": "yes", "wikipedia": "en:Kundalahalli metro station"}}, {"type": "node", "id": 5760197757, "lat": 12.9808558, "lon": 77.7087854, "tags": {"alt_name": "Sitaramapalya", "code": "VWIA", "name": "Seetharampalya", "name:kn": "\u0cb8\u0cc0\u0ca4\u0cbe\u0cb0\u0cbe\u0cae \u0caa\u0cbe\u0cb3\u0ccd\u0caf", "name:ta": "\u0b9a\u0bc0\u0ba4\u0bcd\u0ba4\u0bbe\u0bb0\u0bbe\u0bae\u0bcd\u0baa\u0bbe\u0bb3\u0bcd\u0baf\u0bbe", "network": "Namma Metro", "note": "Contributors are requested to not edit the \"network\" and the \"operator\" tags. (2023/11/08)", "operator": "Bangalore Metro Rail Corporation Limited", "public_transport": "station", "railway": "station", "station": "subway", "subway": "yes", "wheelchair": "yes", "wikipedia": "en:Sitharama Palya metro station"}}, {"type": "node", "id": 5760197761, "lat": 12.9888029, "lon": 77.711326, "tags": {"code": "DKIA", "colour": "#e542de", "name": "Hoodi", "name:kn": "\u0cb9\u0cc2\u0ca1\u0cbf", "name:ta": "\u0bb9\u0bc2\u0b9f\u0bbf", "network": "Namma Metro", "note": "Contributors are requested to not edit the \"network\" and the \"operator\" tags. (2023/11/08)", "old_name": "Hoodi Junction", "operator": "Bangalore Metro Rail Corporation Limited", "public_transport": "station", "railway": "station", "station": "subway", "subway": "yes", "wheelchair": "yes", "wikipedia": "en:Hoodi Junction metro station"}}, {"type": "node", "id": 5760197762, "lat": 12.9934505, "lon": 77.7036768, "tags": {"alt_name": "\u0c97\u0cb0\u0cc1\u0ca1\u0cbe\u0c9a\u0cbe\u0cb0\u0ccd \u0caa\u0cbe\u0cb3\u0ccd\u0caf", "code": "GDCP", "colour": "#e542de", "name": "Garudacharpalya", "name:kn": "\u0c97\u0cb0\u0cc1\u0ca1\u0cbe\u0c9a\u0cbe\u0cb0\u0ccd \u0caa\u0cbe\u0cb3\u0ccd\u0caf", "name:ml": "\u0d17\u0d30\u0d41\u0d21\u0d3e\u0d1a\u0d3e\u0d30\u0d4d \u0d2a\u0d3e\u0d32\u0d4d\u0d2f", "name:ta": "\u0b95\u0bb0\u0bc1\u0b9f\u0b9a\u0bbe\u0bb0\u0bcd\u0baa\u0bbe\u0bb2\u0bcd\u0baf\u0bbe", "network": "Namma Metro", "note": "Contributors are requested to not edit the \"network\" and the \"operator\" tags. (2023/11/08)", "operator": "Bangalore Metro Rail Corporation Limited", "public_transport": "station", "railway": "station", "station": "subway", "subway": "yes", "wheelchair": "yes", "wikipedia": "en:Garudacharapalya metro station"}}, {"type": "node", "id": 5760197764, "lat": 12.9965445, "lon": 77.6927176, "tags": {"alt_name": "Mahadevapura", "code": "MDVP", "colour": "#e542de", "name": "Singayyanapalya", "name:kn": "\u0cb8\u0cbf\u0c82\u0c97\u0caf\u0ccd\u0caf\u0ca8\u0caa\u0cbe\u0cb3\u0ccd\u0caf", "name:ml": "\u0d38\u0d3f\u0d02\u0d17\u0d2f\u0d4d\u0d2f\u0d28\u0d2a\u0d3e\u0d33\u0d2f", "network": "Namma Metro", "note": "Contributors are requested to not edit the \"network\" and the \"operator\" tags. (2023/11/08)", "old_name": "Mahadevapura", "operator": "Bangalore Metro Rail Corporation Limited", "public_transport": "station", "railway": "station", "station": "subway", "subway": "yes", "wheelchair": "yes", "wikidata": "Q112683430", "wikipedia": "en:Singayyanapalya metro station"}}, {"type": "node", "id": 5760197765, "lat": 12.9999024, "lon": 77.6776703, "tags": {"alt_name": "Krishnarajapuram", "code": "KRAM", "colour": "#e542de", "name": "Krishnarajapura", "name:kn": "\u0c95\u0cc3\u0cb7\u0ccd\u0ca3\u0cb0\u0cbe\u0c9c\u0caa\u0cc1\u0cb0 (\u0c95\u0cc6.\u0c86\u0cb0\u0ccd.\u0caa\u0cc1\u0cb0)", "name:ml": "\u0d15\u0d43\u0d37\u0d4d\u0d23\u0d30\u0d3e\u0d1c\u0d2a\u0d41\u0d30\u0d02", "name:ta": "\u0b95\u0bbf\u0bb0\u0bc1\u0bb7\u0bcd\u0ba3\u0bb0\u0bbe\u0b9c\u0baa\u0bc1\u0bb0\u0bbe", "network": "Namma Metro", "note": "Contributors are requested to not edit the \"network\" and the \"operator\" tags. (2023/11/08)", "old_name": "K R Pura", "operator": "Bangalore Metro Rail Corporation Limited", "public_transport": "station", "railway": "station", "short_name": "K.R. Pura", "station": "subway", "subway": "yes", "wheelchair": "yes", "wikidata": "Q112683488", "wikipedia": "en:Krishnarajapura metro station"}}, {"type": "node", "id": 5760197766, "lat": 12.9965158, "lon": 77.6684619, "tags": {"alt_name": "Tin Factory", "alt_name:kn": "\u0c9f\u0cbf\u0ca8\u0ccd \u0cab\u0ccd\u0caf\u0cbe\u0c95\u0ccd\u0c9f\u0cb0\u0cbf", "code": "JTPM", "name": "Benniganahalli", "name:kn": "\u0cac\u0cc6\u0ca8\u0ccd\u0ca8\u0cbf\u0c97\u0cbe\u0ca8\u0cb9\u0cb3\u0ccd\u0cb3\u0cbf", "name:ml": "\u0d2c\u0d46\u0d28\u0d4d\u0d28\u0d3f\u0d17\u0d3e\u0d28\u0d39\u0d33\u0d4d\u0d33\u0d3f", "name:ta": "\u0baa\u0bc6\u0ba9\u0bcd\u0ba9\u0bbf\u0b99\u0bcd\u0b95\u0ba9\u0bb9\u0bb3\u0bcd\u0bb3\u0bbf", "network": "Namma Metro", "note": "Contributors are requested to not edit the \"network\" and the \"operator\" tags. (2023/11/08)", "operator": "Bangalore Metro Rail Corporation Limited", "public_transport": "station", "railway": "station", "start_date": "09/10/2023", "station": "subway", "subway": "yes"}}, {"type": "node", "id": 5960788724, "lat": 13.0432607, "lon": 77.5125535, "tags": {"code": "DSH", "lit": "yes", "name": "Dasarahalli", "name:kn": "\u0ca6\u0cbe\u0cb8\u0cb0\u0cb9\u0cb3\u0ccd\u0cb3\u0cbf", "name:ml": "\u0d26\u0d3e\u0d38\u0d31\u0d39\u0d33\u0d4d\u0d33\u0d3f", "network": "Namma Metro", "note": "Contributors are requested to not edit the \"network\" and the \"operator\" tags. (2023/11/08)", "operator": "Bangalore Metro Rail Corporation Limited", "public_transport": "station", "public_transport:version": "2", "railway": "station", "shelter": "yes", "station": "subway", "subway": "yes", "website": "https://english.brmc.co.in", "wheelchair": "yes"}}, {"type": "node", "id": 5960788725, "lat": 13.0394104, "lon": 77.5197351, "tags": {"code": "JLHL", "lit": "yes", "name": "Jalahalli", "name:kn": "\u0c9c\u0cbe\u0cb2\u0cb9\u0cb3\u0ccd\u0cb3\u0cbf", "name:ml": "\u0d1c\u0d3e\u0d32\u0d39\u0d33\u0d4d\u0d33\u0d3f", "network": "Namma Metro", "note": "Contributors are requested to not edit the \"network\" and the \"operator\" tags. (2023/11/08)", "operator": "Bangalore Metro Rail Corporation Limited", "parking": "yes", "public_transport": "station", "public_transport:version": "2", "railway": "station", "shelter": "yes", "station": "subway", "subway": "yes", "website": "https://english.brmc.co.in", "wheelchair": "yes", "wikidata": "Q30647031", "wikipedia": "en:Jalahalli metro station"}}, {"type": "node", "id": 5960788726, "lat": 12.9965253, "lon": 77.5631963, "tags": {"code": "SPRU", "lit": "yes", "name": "Srirampura", "name:hi": "\u0936\u094d\u0930\u0940\u0930\u093e\u092e\u092a\u0941\u0930\u093e", "name:kn": "\u0cb6\u0ccd\u0cb0\u0cc0\u0cb0\u0cbe\u0cae\u0caa\u0cc1\u0cb0", "name:ml": "\u0d36\u0d4d\u0d30\u0d40\u0d30\u0d3e\u0d02\u0d2a\u0d41\u0d30", "name:ta": "\u0bb8\u0bcd\u0bb0\u0bc0\u0bb0\u0bbe\u0bae\u0bcd\u0baa\u0bc1\u0bb0\u0bbe", "network": "Namma Metro", "network:wikidata": "Q279343", "note": "Contributors are requested to not edit the \"network\" and the \"operator\" tags. (2023/11/08)", "operator": "Bangalore Metro Rail Corporation Limited", "public_transport": "station", "public_transport:version": "2", "railway": "station", "shelter": "yes", "station": "subway", "subway": "yes", "website": "https://english.brmc.co.in", "wheelchair": "yes"}}, {"type": "node", "id": 6154791613, "lat": 12.9073815, "lon": 77.7058349, "tags": {"name": "Carmelaram", "name:kn": "\u0c95\u0cb0\u0ccd\u0cae\u0cc7\u0cb2\u0cb0\u0cae\u0ccd", "network": "IR", "operator": "SWR", "platforms": "2", "public_transport": "station", "railway": "station", "ref": "CRLM", "train": "yes", "wikidata": "Q31291587"}}, {"type": "node", "id": 6400857549, "lat": 12.9907594, "lon": 77.6523612, "tags": {"code": "BYPH", "layer": "1", "lit": "yes", "name": "Baiyappanahalli", "name:kn": "\u0cac\u0cc8\u0caf\u0ccd\u0caf\u0caa\u0ccd\u0caa\u0ca8\u0cb9\u0cb3\u0ccd\u0cb3\u0cbf \u0cae\u0cc6\u0c9f\u0ccd\u0cb0\u0ccb \u0ca8\u0cbf\u0cb2\u0ccd\u0ca6\u0cbe\u0ca3", "name:ml": "\u0d2c\u0d48\u0d2f\u0d2a\u0d4d\u0d2a\u0d28\u0d39\u0d33\u0d4d\u0d33\u0d3f", "network": "Namma Metro", "note": "Contributors are requested to not edit the \"network\" and the \"operator\" tags. (2023/11/08)", "operator": "Bangalore Metro Rail Corporation Limited", "platforms": "2", "public_transport": "station", "public_transport:version": "2", "railway": "station", "shelter": "yes", "station": "subway", "subway": "yes", "website": "https://english.brmc.co.in", "wheelchair": "yes"}}, {"type": "node", "id": 6400857550, "lat": 12.9859306, "lon": 77.644897, "tags": {"code": "SVRD", "layer": "1", "lit": "yes", "name": "Swami Vivekananda Road", "name:etymology:wikidata": "Q47478", "name:kn": "\u0cb8\u0ccd\u0cb5\u0cbe\u0cae\u0cbf \u0cb5\u0cbf\u0cb5\u0cc7\u0c95\u0cbe\u0ca8\u0c82\u0ca6 \u0cb0\u0cb8\u0ccd\u0ca4\u0cc6", "name:ml": "\u0d38\u0d4d\u0d35\u0d3e\u0d2e\u0d3f \u0d35\u0d3f\u0d35\u0d47\u0d15\u0d3e\u0d28\u0d28\u0d4d\u0d26 \u0d31\u0d4b\u0d21\u0d4d", "network": "Namma Metro", "note": "Contributors are requested to not edit the \"network\" and the \"operator\" tags. (2023/11/08)", "operator": "Bangalore Metro Rail Corporation Limited", "platforms": "2", "public_transport": "station", "public_transport:version": "2", "railway": "station", "shelter": "yes", "station": "subway", "subway": "yes", "website": "https://english.brmc.co.in", "wheelchair": "yes"}}, {"type": "node", "id": 6400857551, "lat": 12.9783325, "lon": 77.6386612, "tags": {"code": "IDN", "layer": "1", "lit": "yes", "name": "Indiranagar", "name:hi": "\u0907\u0902\u0926\u093f\u0930\u093e\u0928\u0917\u0930", "name:kn": "\u0c87\u0c82\u0ca6\u0cbf\u0cb0\u0cbe\u0ca8\u0c97\u0cb0", "name:ml": "\u0d07\u0d28\u0d4d\u0d26\u0d3f\u0d30\u0d3e\u0d28\u0d17\u0d7c", "network": "Namma Metro", "note": "Contributors are requested to not edit the \"network\" and the \"operator\" tags. (2023/11/08)", "operator": "Bangalore Metro Rail Corporation Limited", "platforms": "2", "public_transport": "station", "public_transport:version": "2", "railway": "station", "shelter": "yes", "station": "subway", "subway": "yes", "website": "https://english.brmc.co.in", "wheelchair": "yes"}}, {"type": "node", "id": 6400857552, "lat": 12.9764992, "lon": 77.626686, "tags": {"code": "HLRU", "layer": "1", "lit": "yes", "name": "Halasuru", "name:kn": "\u0cb9\u0cb2\u0cb8\u0cc2\u0cb0\u0cc1", "name:ml": "\u0d39\u0d32\u0d38\u0d41\u0d30\u0d41", "network": "Namma Metro", "note": "Contributors are requested to not edit the \"network\" and the \"operator\" tags. (2023/11/08)", "operator": "Bangalore Metro Rail Corporation Limited", "platforms": "2", "public_transport": "station", "public_transport:version": "2", "railway": "station", "shelter": "yes", "station": "subway", "subway": "yes", "website": "https://english.brmc.co.in", "wheelchair": "yes"}}, {"type": "node", "id": 6400857553, "lat": 12.9730218, "lon": 77.6170205, "tags": {"code": "TTY", "layer": "1", "lit": "yes", "name": "Trinity", "name:hi": "\u091f\u094d\u0930\u093f\u0928\u093f\u091f\u0940", "name:kn": "\u0c9f\u0ccd\u0cb0\u0cbf\u0ca8\u0cbf\u0c9f\u0cbf \u0cae\u0cc6\u0c9f\u0ccd\u0cb0\u0cca \u0ca8\u0cbf\u0cb2\u0ccd\u0ca6\u0cbe\u0ca3", "name:ml": "\u0d1f\u0d4d\u0d30\u0d3f\u0d28\u0d3f\u0d31\u0d4d\u0d31\u0d3f", "network": "Namma Metro", "note": "Contributors are requested to not edit the \"network\" and the \"operator\" tags. (2023/11/08)", "operator": "Bangalore Metro Rail Corporation Limited", "platforms": "2", "public_transport": "station", "public_transport:version": "2", "railway": "station", "shelter": "yes", "station": "subway", "subway": "yes", "website": "https://english.brmc.co.in", "wheelchair": "yes"}}, {"type": "node", "id": 6400857554, "lat": 12.9755264, "lon": 77.6067902, "tags": {"alt_name": "Plaza Theatre Metro Station", "code": "MAGR", "layer": "1", "lit": "yes", "name": "Mahatma Gandhi Road", "name:kn": "\u0cae\u0cb9\u0cbe\u0ca4\u0ccd\u0cae \u0c97\u0cbe\u0c82\u0ca7\u0cbf \u0cb0\u0cb8\u0ccd\u0ca4\u0cc6", "name:ta": "\u0bae\u0b95\u0bbe\u0ba4\u0bcd\u0bae\u0bbe \u0b95\u0bbe\u0ba8\u0bcd\u0ba4\u0bbf \u0b9a\u0bbe\u0bb2\u0bc8", "network": "Namma Metro", "note": "Contributors are requested to not edit the \"network\" and the \"operator\" tags. (2023/11/08)", "operator": "Bangalore Metro Rail Corporation Limited", "platforms": "2", "public_transport": "station", "public_transport:version": "2", "railway": "station", "shelter": "yes", "short_name": "MG Road", "start_date": "20-10-2011", "station": "subway", "subway": "yes", "website": "https://english.brmc.co.in", "wheelchair": "yes", "wikidata": "Q5539354", "wikipedia": "en:Mahatma Gandhi Road metro station (Bangalore)"}}, {"type": "node", "id": 6400857555, "lat": 12.9809575, "lon": 77.5975756, "tags": {"code": "CBPK", "name": "Cubbon Park", "name:etymology:wikidata": "Q6767214", "name:hi": "\u0915\u092c\u0928 \u092a\u093e\u0930\u094d\u0915", "name:kn": "\u0c95\u0cac\u0ccd\u0cac\u0ca8\u0ccd \u0caa\u0cbe\u0cb0\u0ccd\u0c95\u0ccd", "name:ml": "\u0d15\u0d2c\u0d4d\u0d2c\u0d7a \u0d2a\u0d3e\u0d7c\u0d15\u0d4d\u0d15\u0d4d", "network": "Namma Metro", "note": "Contributors are requested to not edit the \"network\" and the \"operator\" tags. (2023/11/08)", "operator": "Bangalore Metro Rail Corporation Limited", "public_transport": "station", "public_transport:version": "2", "railway": "station", "shelter": "yes", "station": "subway", "subway": "yes", "tunnel": "yes", "website": "https://english.brmc.co.in", "wheelchair": "yes"}}, {"type": "node", "id": 6400857556, "lat": 12.9787419, "lon": 77.5916385, "tags": {"code": "VDSA", "name": "Dr. B. R. Ambedkar Station, Vidhana Soudha", "name:kn": "\u0ca1\u0cbe.\u0cac\u0cbf.\u0c86\u0cb0\u0ccd. \u0c85\u0c82\u0cac\u0cc7\u0ca1\u0ccd\u0c95\u0cb0\u0ccd \u0ca0\u0cbe\u0ca3\u0cc6, \u0cb5\u0cbf\u0ca7\u0cbe\u0ca8\u0cb8\u0ccc\u0ca7", "name:ml": "\u0d21\u0d4b.\u0d2c\u0d3f.\u0d06\u0d7c. \u0d05\u0d02\u0d2c\u0d47\u0d26\u0d4d\u0d15\u0d7c \u0d38\u0d4d\u0d31\u0d4d\u0d31\u0d47\u0d37\u0d7b, \u0d35\u0d3f\u0d27\u0d3e\u0d28 \u0d38\u0d57\u0d27", "network": "Namma Metro", "note": "Contributors are requested to not edit the \"network\" and the \"operator\" tags. (2023/11/08)", "operator": "Bangalore Metro Rail Corporation Limited", "public_transport": "station", "public_transport:version": "2", "railway": "station", "shelter": "yes", "station": "subway", "subway": "yes", "tunnel": "yes", "website": "https://english.brmc.co.in", "wheelchair": "yes"}}, {"type": "node", "id": 6400857557, "lat": 12.9745197, "lon": 77.58422, "tags": {"alt_name": "Central College", "code": "VSWA", "name": "Sir M. Visvesvaraya Stn., Central College", "name:kn": "\u0cb8\u0cb0\u0ccd \u0c8e\u0c82 \u0cb5\u0cbf\u0cb6\u0ccd\u0cb5\u0cc7\u0cb6\u0ccd\u0cb5\u0cb0\u0caf\u0ccd\u0caf - \u0cb8\u0cc6\u0c82\u0c9f\u0ccd\u0cb0\u0cb2\u0ccd \u0c95\u0cbe\u0cb2\u0cc7\u0c9c\u0cc1", "name:ml": "\u0d38\u0d7c \u0d0e\u0d02 \u0d35\u0d3f\u0d36\u0d4d\u0d35\u0d47\u0d36\u0d4d\u0d35\u0d30\u0d2f\u0d4d\u0d2f - \u0d38\u0d46\u0d7b\u0d1f\u0d4d\u0d30\u0d7d \u0d15\u0d4b\u0d33\u0d47\u0d1c\u0d4d", "network": "Namma Metro", "note": "Contributors are requested to not edit the \"network\" and the \"operator\" tags. (2023/11/08)", "operator": "Bangalore Metro Rail Corporation Limited", "public_transport": "station", "public_transport:version": "2", "railway": "station", "shelter": "yes", "station": "subway", "subway": "yes", "tunnel": "yes", "website": "https://english.brmc.co.in", "wheelchair": "yes"}}, {"type": "node", "id": 6400857558, "lat": 12.9757079, "lon": 77.5728757, "tags": {"alt_name": "Majestic Metro Station", "code": "KGWA", "level": "-2;-1;0", "name": "Nadaprabhu Kempegowda Station, Majestic", "name:etymology:wikidata": "Q6387049", "name:kn": "\u0ca8\u0cbe\u0ca1\u0caa\u0ccd\u0cb0\u0cad\u0cc1 \u0c95\u0cc6\u0c82\u0caa\u0cc7\u0c97\u0ccc\u0ca1 \u0ca8\u0cbf\u0cb2\u0ccd\u0ca6\u0cbe\u0ca3, \u0cae\u0cc6\u0c9c\u0cc6\u0cb8\u0ccd\u0c9f\u0cbf\u0c95\u0ccd", "name:ml": "\u0d28\u0d3e\u0d1f\u0d2a\u0d4d\u0d30\u0d2d\u0d41 \u0d15\u0d46\u0d2e\u0d4d\u0d2a\u0d17\u0d57\u0d21 \u0d38\u0d4d\u0d31\u0d4d\u0d31\u0d47\u0d37\u0d7b, \u0d2e\u0d1c\u0d38\u0d4d\u0d31\u0d4d\u0d31\u0d3f\u0d15\u0d4d", "name:ta": "\u0ba8\u0bbe\u0b9f\u0baa\u0bcd\u0baa\u0bbf\u0bb0\u0baa\u0bc1 \u0b95\u0bc6\u0bae\u0bcd\u0baa\u0bc7\u0b95\u0bb5\u0bc1\u0b9f\u0bbe \u0bae\u0bc6\u0b9c\u0bb8\u0bcd\u0b9f\u0bbf\u0b95\u0bcd", "network": "Namma Metro", "note": "Contributors are requested to not edit the \"network\" and the \"operator\" tags. (2023/11/08)", "operator": "Bangalore Metro Rail Corporation Limited", "public_transport": "station", "public_transport:version": "2", "railway": "station", "shelter": "yes", "station": "subway", "subway": "yes", "website": "https://english.brmc.co.in", "wheelchair": "yes", "wikidata": "Q6737727", "wikipedia": "en:Majestic metro station"}}, {"type": "node", "id": 6400857559, "lat": 12.9758768, "lon": 77.5653767, "tags": {"code": "BRCS", "name": "Krantivira Sangolli Rayanna Railway Station", "name:kn": "\u0c95\u0ccd\u0cb0\u0cbe\u0c82\u0ca4\u0cbf\u0cb5\u0cc0\u0cb0 \u0cb8\u0c82\u0c97\u0cca\u0cb3\u0ccd\u0cb3\u0cbf \u0cb0\u0cbe\u0caf\u0ca3\u0ccd\u0ca3", "name:ml": "\u0d15\u0d4d\u0d30\u0d3e\u0d28\u0d4d\u0d24\u0d3f\u0d35\u0d40\u0d30 \u0d38\u0d19\u0d4d\u0d15\u0d4a\u0d32\u0d4d\u0d32\u0d3f \u0d30\u0d3e\u0d2f\u0d23\u0d4d\u0d23", "network": "Namma Metro", "note": "Contributors are requested to not edit the \"network\" and the \"operator\" tags. (2023/11/08)", "operator": "Bangalore Metro Rail Corporation Limited", "public_transport": "station", "public_transport:version": "2", "railway": "station", "shelter": "yes", "station": "subway", "subway": "yes", "website": "https://english.brmc.co.in", "wheelchair": "yes"}}, {"type": "node", "id": 6400857560, "lat": 12.975632, "lon": 77.5553523, "tags": {"code": "MIRD", "name": "Magadi Road", "name:kn": "\u0cae\u0cbe\u0c97\u0ca1\u0cbf \u0cb0\u0cb8\u0ccd\u0ca4\u0cc6 \u0cae\u0cc6\u0c9f\u0ccd\u0cb0\u0cca", "name:ml": "\u0d2e\u0d3e\u0d17\u0d21\u0d3f \u0d31\u0d4b\u0d21\u0d4d", "network": "Namma Metro", "network:wikidata": "Q279343", "note": "Contributors are requested to not edit the \"network\" and the \"operator\" tags. (2023/11/08)", "operator": "Bangalore Metro Rail Corporation Limited", "public_transport": "station", "public_transport:version": "2", "railway": "station", "shelter": "yes", "station": "subway", "subway": "yes", "website": "https://english.brmc.co.in", "wheelchair": "yes"}}, {"type": "node", "id": 6400857561, "lat": 12.9742933, "lon": 77.5456215, "tags": {"code": "HSLI", "name": "Sri Balagangadharanatha Swamiji Station, Hosahalli", "name:kn": "\u0cb6\u0ccd\u0cb0\u0cc0 \u0cac\u0cbe\u0cb2\u0c97\u0c82\u0c97\u0cbe\u0ca7\u0cb0\u0ca8\u0cbe\u0ca5 \u0cae\u0cc6\u0c9f\u0ccd\u0cb0\u0ccb", "name:ml": "\u0d36\u0d4d\u0d30\u0d40 \u0d2c\u0d3e\u0d32\u0d17\u0d02\u0d17\u0d3e\u0d27\u0d30\u0d28\u0d3e\u0d25 \u0d38\u0d4d\u0d35\u0d3e\u0d2e\u0d3f, \u0d39\u0d4a\u0d38\u0d39\u0d33\u0d4d\u0d33\u0d3f", "network": "Namma Metro", "network:wikidata": "Q279343", "note": "Contributors are requested to not edit the \"network\" and the \"operator\" tags. (2023/11/08)", "operator": "Bangalore Metro Rail Corporation Limited", "public_transport": "station", "public_transport:version": "2", "railway": "station", "shelter": "yes", "station": "subway", "subway": "yes", "website": "https://english.brmc.co.in", "wheelchair": "yes"}}, {"type": "node", "id": 6400857562, "lat": 12.9709559, "lon": 77.5374044, "tags": {"code": "VJN", "name": "Vijayanagar", "name:kn": "\u0cb5\u0cbf\u0c9c\u0caf\u0ca8\u0c97\u0cb0", "name:ml": "\u0d35\u0d3f\u0d1c\u0d2f\u0d28\u0d17\u0d30", "network": "Namma Metro", "network:wikidata": "Q279343", "note": "Contributors are requested to not edit the \"network\" and the \"operator\" tags. (2023/11/08)", "operator": "Bangalore Metro Rail Corporation Limited", "public_transport": "station", "public_transport:version": "2", "railway": "station", "shelter": "yes", "station": "subway", "subway": "yes", "website": "https://english.brmc.co.in", "wheelchair": "yes"}}, {"type": "node", "id": 6400857563, "lat": 12.9618931, "lon": 77.5335788, "tags": {"code": "AGPP", "name": "Attiguppe", "name:kn": "\u0c85\u0ca4\u0ccd\u0ca4\u0cbf\u0c97\u0cc1\u0caa\u0ccd\u0caa\u0cc6 \u0cae\u0cc6\u0c9f\u0ccd\u0cb0\u0ccb", "name:ml": "\u0d05\u0d24\u0d4d\u0d24\u0d3f\u0d17\u0d41\u0d2a\u0d4d\u0d2a\u0d46", "network": "Namma Metro", "network:wikidata": "Q279343", "note": "Contributors are requested to not edit the \"network\" and the \"operator\" tags. (2023/11/08)", "operator": "Bangalore Metro Rail Corporation Limited", "public_transport": "station", "public_transport:version": "2", "railway": "station", "shelter": "yes", "station": "subway", "subway": "yes", "website": "https://english.brmc.co.in", "wheelchair": "yes"}}, {"type": "node", "id": 6400857564, "lat": 12.9520578, "lon": 77.5370122, "tags": {"code": "DJNR", "name": "Deepanjali Nagar", "name:kn": "\u0ca6\u0cc0\u0caa\u0cbe\u0c82\u0c9c\u0cb2\u0cbf \u0ca8\u0c97\u0cb0", "name:ml": "\u0d26\u0d40\u0d2a\u0d3e\u0d1e\u0d4d\u0d1c\u0d32\u0d3f \u0d28\u0d17\u0d7c", "network": "Namma Metro", "note": "Contributors are requested to not edit the \"network\" and the \"operator\" tags. (2023/11/08)", "operator": "Bangalore Metro Rail Corporation Limited", "public_transport": "station", "public_transport:version": "2", "railway": "station", "shelter": "yes", "station": "subway", "subway": "yes", "website": "https://english.brmc.co.in", "wheelchair": "yes"}}, {"type": "node", "id": 6400857565, "lat": 12.9467183, "lon": 77.5301588, "tags": {"code": "MYRD", "name": "Mysore Road", "name:kn": "\u0cae\u0cc8\u0cb8\u0cc2\u0cb0\u0cc1 \u0cb0\u0cb8\u0ccd\u0ca4\u0cc6 \u0cae\u0cc6\u0c9f\u0ccd\u0cb0\u0ccb", "name:ml": "\u0d2e\u0d48\u0d38\u0d42\u0d7c \u0d31\u0d4b\u0d21\u0d4d", "network": "Namma Metro", "network:wikidata": "Q279343", "note": "Contributors are requested to not edit the \"network\" and the \"operator\" tags. (2023/11/08)", "operator": "Bangalore Metro Rail Corporation Limited", "public_transport": "station", "public_transport:version": "2", "railway": "station", "shelter": "yes", "station": "subway", "subway": "yes", "website": "https://english.brmc.co.in", "wheelchair": "yes"}}, {"type": "node", "id": 6410706688, "lat": 12.9904629, "lon": 77.5707293, "tags": {"code": "SPGD", "name": "Mantri Square Sampige Road", "name:kn": "\u0cae\u0c82\u0ca4\u0ccd\u0cb0\u0cbf \u0cb8\u0ccd\u0c95\u0ccd\u0cb5\u0cc7\u0cb0\u0ccd \u0cb8\u0c82\u0caa\u0cbf\u0c97\u0cc6 \u0cb0\u0cb8\u0ccd\u0ca4\u0cc6", "name:ml": "\u0d2e\u0d28\u0d4d\u0d24\u0d4d\u0d30\u0d3f \u0d38\u0d4d\u0d15\u0d4d\u0d35\u0d2f\u0d7c \u0d38\u0d2e\u0d4d\u0d2a\u0d3f\u0d17\u0d46 \u0d31\u0d4b\u0d21\u0d4d", "network": "Namma Metro", "network:wikidata": "Q279343", "note": "Contributors are requested to not edit the \"network\" and the \"operator\" tags. (2023/11/08)", "operator": "Bangalore Metro Rail Corporation Limited", "public_transport": "station", "public_transport:version": "2", "railway": "station", "shelter": "yes", "station": "subway", "subway": "yes", "website": "https://english.brmc.co.in", "wheelchair": "yes"}}, {"type": "node", "id": 6410706689, "lat": 12.9985297, "lon": 77.5568986, "tags": {"code": "KVPR", "name": "Mahakavi Kuvempu Road", "name:etymology:wikidata": "Q3351108", "name:kn": "\u0cae\u0cb9\u0cbe\u0c95\u0cb5\u0cbf \u0c95\u0cc1\u0cb5\u0cc6\u0c82\u0caa\u0cc1 \u0cb0\u0cb8\u0ccd\u0ca4\u0cc6", "name:ml": "\u0d2e\u0d39\u0d3e\u0d15\u0d35\u0d3f \u0d15\u0d41\u0d35\u0d46\u0d2e\u0d4d\u0d2a\u0d41 \u0d31\u0d4b\u0d21\u0d4d", "name:ta": "\u0bae\u0b95\u0bbe\u0b95\u0bb5\u0bbf \u0b95\u0bc1\u0bb5\u0bc7\u0bae\u0bcd\u0baa\u0bc1 \u0b9a\u0bbe\u0bb2\u0bc8", "network": "Namma Metro", "network:wikidata": "Q279343", "note": "Contributors are requested to not edit the \"network\" and the \"operator\" tags. (2023/11/08)", "operator": "Bangalore Metro Rail Corporation Limited", "public_transport": "station", "public_transport:version": "2", "railway": "station", "shelter": "yes", "short_name": "MKK Road", "station": "subway", "subway": "yes", "website": "https://english.brmc.co.in", "wheelchair": "yes"}}, {"type": "node", "id": 6410706690, "lat": 13.0005247, "lon": 77.5496568, "tags": {"code": "RJNR", "name": "Rajajinagar", "name:hi": "\u0930\u093e\u091c\u093e\u091c\u0940\u0928\u0917\u0930", "name:kn": "\u0cb0\u0cbe\u0c9c\u0cbe\u0c9c\u0cbf\u0ca8\u0c97\u0cb0", "name:ml": "\u0d30\u0d3e\u0d1c\u0d3e\u0d1c\u0d3f\u0d28\u0d17\u0d7c", "name:ta": "\u0bb0\u0bbe\u0b9c\u0bbe\u0b9c\u0bbf \u0ba8\u0b95\u0bb0\u0bcd", "network": "Namma Metro", "note": "Contributors are requested to not edit the \"network\" and the \"operator\" tags. (2023/11/08)", "operator": "Bangalore Metro Rail Corporation Limited", "public_transport": "station", "public_transport:version": "2", "railway": "station", "shelter": "yes", "station": "subway", "subway": "yes", "website": "https://english.brmc.co.in", "wheelchair": "yes"}}, {"type": "node", "id": 6410706691, "lat": 13.0080475, "lon": 77.5488066, "tags": {"code": "MHLI", "name": "Mahalakshmi", "name:hi": "\u092e\u0939\u093e\u0932\u0915\u094d\u0937\u094d\u092e\u0940", "name:kn": "\u0cae\u0cb9\u0cbe\u0cb2\u0c95\u0ccd\u0cb7\u0ccd\u0cae\u0cbf", "name:ml": "\u0d2e\u0d39\u0d3e\u0d32\u0d15\u0d4d\u0d37\u0d4d\u0d2e\u0d3f", "name:ta": "\u0bae\u0b95\u0bbe\u0bb2\u0b9f\u0bcd\u0b9a\u0bc1\u0bae\u0bbf", "network": "Namma Metro", "network:wikidata": "Q279343", "note": "Contributors are requested to not edit the \"network\" and the \"operator\" tags. (2023/11/08)", "operator": "Bangalore Metro Rail Corporation Limited", "public_transport": "station", "public_transport:version": "2", "railway": "station", "shelter": "yes", "station": "subway", "subway": "yes", "website": "https://english.brmc.co.in", "wheelchair": "yes"}}, {"type": "node", "id": 6410706692, "lat": 13.0146544, "lon": 77.5539839, "tags": {"code": "SSFY", "name": "Sandal Soap Factory", "name:kn": "\u0cb8\u0cbe\u0c82\u0ca1\u0cb2\u0ccd \u0cb8\u0ccb\u0caa\u0ccd \u0c95\u0cbe\u0cb0\u0ccd\u0c96\u0cbe\u0ca8\u0cc6", "name:ml": "\u0d38\u0d3e\u0d7b\u0d21\u0d7d \u0d38\u0d4b\u0d2a\u0d4d\u0d2a\u0d4d \u0d2b\u0d3e\u0d15\u0d4d\u0d1f\u0d31\u0d3f", "network": "Namma Metro", "network:wikidata": "Q279343", "note": "Contributors are requested to not edit the \"network\" and the \"operator\" tags. (2023/11/08)", "operator": "Bangalore Metro Rail Corporation Limited", "public_transport": "station", "public_transport:version": "2", "railway": "station", "shelter": "yes", "station": "subway", "subway": "yes", "website": "https://english.brmc.co.in", "wheelchair": "yes", "wikipedia": "en:Sandal Soap Factory metro station"}}, {"type": "node", "id": 6410706694, "lat": 13.0282554, "lon": 77.5412649}, {"type": "node", "id": 6410706695, "lat": 13.0330189, "lon": 77.533201, "tags": {"code": "PEYA", "name": "Peenya", "name:kn": "\u0caa\u0cc0\u0ca3\u0ccd\u0caf", "name:ml": "\u0d2a\u0d40\u0d23\u0d4d\u0d2f", "network": "Namma Metro", "network:wikidata": "Q279343", "note": "Contributors are requested to not edit the \"network\" and the \"operator\" tags. (2023/11/08)", "operator": "Bangalore Metro Rail Corporation Limited", "public_transport": "station", "public_transport:version": "2", "railway": "station", "shelter": "yes", "station": "subway", "subway": "yes", "website": "https://english.brmc.co.in", "wheelchair": "yes"}}, {"type": "node", "id": 6410706696, "lat": 13.0363176, "lon": 77.5254924, "tags": {"code": "PYID", "name": "Peenya Industry", "name:kn": "\u0caa\u0cc0\u0ca3\u0ccd\u0caf \u0c87\u0c82\u0ca1\u0cb8\u0ccd\u0c9f\u0ccd\u0cb0\u0cbf", "name:ml": "\u0d2a\u0d40\u0d23\u0d4d\u0d2f \u0d07\u0d7b\u0d21\u0d38\u0d4d\u0d1f\u0d4d\u0d30\u0d3f", "network": "Namma Metro", "network:wikidata": "Q279343", "note": "Contributors are requested to not edit the \"network\" and the \"operator\" tags. (2023/11/08)", "operator": "Bangalore Metro Rail Corporation Limited", "public_transport": "station", "public_transport:version": "2", "railway": "station", "shelter": "yes", "station": "subway", "subway": "yes", "website": "https://english.brmc.co.in", "wheelchair": "yes"}}, {"type": "node", "id": 6432710292, "lat": 12.8960498, "lon": 77.5701194, "tags": {"code": "PUTH", "layer": "1", "lit": "yes", "name": "Yelachenahalli", "name:kn": "\u0caf\u0cb2\u0c9a\u0cc7\u0ca8\u0cb9\u0cb3\u0ccd\u0cb3\u0cbf", "name:ml": "\u0d2f\u0d32\u0d1a\u0d4d\u0d1a\u0d47\u0d28\u0d39\u0d33\u0d4d\u0d33\u0d3f", "name:ta": "\u0b8e\u0bb2\u0b9a\u0bcd\u0b9a\u0bc7\u0ba9\u0bb9\u0bb2\u0bcd\u0bb2\u0bbf", "network": "Namma Metro", "note": "Contributors are requested to not edit the \"network\" and the \"operator\" tags. (2023/11/08)", "operator": "Bangalore Metro Rail Corporation Limited", "platforms": "2", "public_transport": "station", "public_transport:version": "2", "railway": "station", "shelter": "yes", "station": "subway", "subway": "yes", "website": "https://english.brmc.co.in", "wheelchair": "yes"}}, {"type": "node", "id": 6432710293, "lat": 12.9074747, "lon": 77.5731279, "tags": {"code": "JPN", "layer": "1", "lit": "yes", "name": "Jaya Prakash Nagar", "name:kn": "\u0c9c\u0cc6\u0caa\u0cbf \u0ca8\u0c97\u0cb0", "name:ml": "\u0d1c\u0d46 \u0d2a\u0d3f \u0d28\u0d17\u0d7c", "name:ta": "\u0b9c\u0bc7 \u0baa\u0bbf \u0ba8\u0b95\u0bb0\u0bcd", "network": "Namma Metro", "note": "Contributors are requested to not edit the \"network\" and the \"operator\" tags. (2023/11/08)", "operator": "Bangalore Metro Rail Corporation Limited", "platforms": "2", "public_transport": "station", "public_transport:version": "2", "railway": "station", "shelter": "yes", "short_name": "J P Nagar", "station": "subway", "subway": "yes", "website": "https://english.brmc.co.in", "wheelchair": "yes"}}, {"type": "node", "id": 6432710294, "lat": 12.9152208, "lon": 77.573598, "tags": {"code": "BSNK", "layer": "1", "lit": "yes", "name": "Banashankari", "name:kn": "\u0cac\u0ca8\u0cb6\u0c82\u0c95\u0cb0\u0cbf", "name:ml": "\u0d2c\u0d28\u0d36\u0d19\u0d4d\u0d15\u0d30\u0d3f", "name:ta": "\u0baa\u0ba9\u0b9a\u0b99\u0bcd\u0b95\u0bb0\u0bbf", "network": "Namma Metro", "note": "Contributors are requested to not edit the \"network\" and the \"operator\" tags. (2023/11/08)", "operator": "Bangalore Metro Rail Corporation Limited", "platforms": "2", "public_transport": "station", "public_transport:version": "2", "railway": "station", "shelter": "yes", "station": "subway", "subway": "yes", "website": "https://english.brmc.co.in", "wheelchair": "yes"}}, {"type": "node", "id": 6432710295, "lat": 12.921331, "lon": 77.5802659, "tags": {"code": "RVR", "layer": "1", "lit": "yes", "name": "Rashtreeya Vidyalaya Road", "name:en": "Rashtreeya Vidyalaya Road", "name:kn": "\u0cb0\u0cbe\u0cb7\u0ccd\u0c9f\u0ccd\u0cb0\u0cc0\u0caf \u0cb5\u0cbf\u0ca6\u0ccd\u0caf\u0cbe\u0cb2\u0caf \u0cb0\u0cb8\u0ccd\u0ca4\u0cc6", "name:ml": "\u0d30\u0d3e\u0d37\u0d4d\u0d1f\u0d4d\u0d30\u0d40\u0d2f \u0d35\u0d3f\u0d26\u0d4d\u0d2f\u0d3e\u0d32\u0d2f \u0d31\u0d4b\u0d21\u0d4d", "name:ta": "\u0bb0\u0bbe\u0bb7\u0bcd\u0b9f\u0bcd\u0bb0\u0bc0\u0baf \u0bb5\u0bbf\u0ba4\u0bcd\u0baf\u0bbe\u0bb2\u0baf\u0bbe \u0b9a\u0bbe\u0bb2\u0bc8", "network": "Namma Metro", "note": "Contributors are requested to not edit the \"network\" and the \"operator\" tags. (2023/11/08)", "operator": "Bangalore Metro Rail Corporation Limited", "platforms": "2", "public_transport": "station", "public_transport:version": "2", "railway": "station", "shelter": "yes", "station": "subway", "subway": "yes", "website": "https://english.brmc.co.in", "wheelchair": "yes"}}, {"type": "node", "id": 6432710296, "lat": 12.9295069, "lon": 77.5801439, "tags": {"code": "JYN", "layer": "1", "lit": "yes", "name": "Jayanagar", "name:hi": "\u091c\u092f\u093e\u0928\u0917\u0930", "name:kn": "\u0c9c\u0caf\u0ca8\u0c97\u0cb0", "name:ml": "\u0d1c\u0d2f\u0d28\u0d17\u0d7c", "name:ta": "\u0b9c\u0bc6\u0baf\u0bbe\u0ba8\u0b95\u0bb0\u0bcd", "network": "Namma Metro", "note": "Contributors are requested to not edit the \"network\" and the \"operator\" tags. (2023/11/08)", "operator": "Bangalore Metro Rail Corporation Limited", "platforms": "2", "public_transport": "station", "public_transport:version": "2", "railway": "station", "shelter": "yes", "station": "subway", "subway": "yes", "website": "https://english.brmc.co.in", "wheelchair": "yes"}}, {"type": "node", "id": 6432710297, "lat": 12.9382573, "lon": 77.5800556, "tags": {"code": "SECE", "layer": "1", "lit": "yes", "name": "South End Circle", "name:kn": "\u0ca4\u0cbf.\u0ca8\u0c82.\u0cb6\u0ccd\u0cb0\u0cc0 \u0cb5\u0cc3\u0ca4\u0ccd\u0ca4", "name:ml": "\u0d38\u0d57\u0d24\u0d4d\u0d24\u0d4d \u0d0e\u0d7b\u0d21\u0d4d \u0d38\u0d7c\u0d15\u0d4d\u0d15\u0d3f\u0d7e", "name:ta": "\u0b9a\u0bb5\u0bc1\u0ba4\u0bcd \u0b8e\u0ba9\u0bcd\u0b9f\u0bc1 \u0b9a\u0bb0\u0bcd\u0b95\u0bbf\u0bb3\u0bcd", "network": "Namma Metro", "note": "Contributors are requested to not edit the \"network\" and the \"operator\" tags. (2023/11/08)", "operator": "Bangalore Metro Rail Corporation Limited", "platforms": "2", "public_transport": "station", "public_transport:version": "2", "railway": "station", "shelter": "yes", "station": "subway", "subway": "yes", "website": "https://english.brmc.co.in", "wheelchair": "yes"}}, {"type": "node", "id": 6432710298, "lat": 12.9465265, "lon": 77.580016, "tags": {"code": "LBGH", "layer": "1", "lit": "yes", "name": "Lalbagh", "name:hi": "\u0932\u093e\u0932\u092c\u093e\u0917\u093c", "name:kn": "\u0cb2\u0cbe\u0cb2\u0ccd \u0cac\u0cbe\u0c97\u0ccd", "name:ml": "\u0d32\u0d3e\u0d7d\u0d2c\u0d3e\u0d17\u0d4d", "name:ta": "\u0bb2\u0bbe\u0bb2\u0bcd\u0baa\u0bbe\u0b95\u0bcd", "network": "Namma Metro", "note": "Contributors are requested to not edit the \"network\" and the \"operator\" tags. (2023/11/08)", "operator": "Bangalore Metro Rail Corporation Limited", "platforms": "2", "public_transport": "station", "public_transport:version": "2", "railway": "station", "shelter": "yes", "station": "subway", "subway": "yes", "website": "https://english.brmc.co.in", "wheelchair": "yes"}}, {"type": "node", "id": 6432710299, "lat": 12.9505266, "lon": 77.5736898, "tags": {"code": "NLC", "layer": "1", "lit": "yes", "name": "National College", "name:kn": "\u0ca8\u0ccd\u0caf\u0cbe\u0cb6\u0ca8\u0cb2\u0ccd \u0c95\u0cbe\u0cb2\u0cc7\u0c9c\u0cc1", "name:ml": "\u0d28\u0d3e\u0d37\u0d23\u0d7d \u0d15\u0d4b\u0d33\u0d47\u0d1c\u0d4d", "name:ta": "\u0ba8\u0bc7\u0bb7\u0ba9\u0bb2\u0bcd \u0b95\u0bb2\u0bcd\u0bb2\u0bc2\u0bb0\u0bbf", "network": "Namma Metro", "note": "Contributors are requested to not edit the \"network\" and the \"operator\" tags. (2023/11/08)", "operator": "Bangalore Metro Rail Corporation Limited", "platforms": "2", "public_transport": "station", "public_transport:version": "2", "railway": "station", "shelter": "yes", "station": "subway", "subway": "yes", "website": "https://english.brmc.co.in", "wheelchair": "yes"}}, {"type": "node", "id": 6432710300, "lat": 12.9608788, "lon": 77.5746578, "tags": {"code": "KRMT", "lit": "yes", "name": "Krishna Rajendra Market", "name:kn": "\u0c95\u0cc3\u0cb7\u0ccd\u0ca3\u0cb0\u0cbe\u0c9c\u0cc7\u0c82\u0ca6\u0ccd\u0cb0 \u0cae\u0cbe\u0cb0\u0cc1\u0c95\u0c9f\u0ccd\u0c9f\u0cc6", "name:ml": "\u0d15\u0d43\u0d37\u0d4d\u0d23 \u0d30\u0d3e\u0d1c\u0d47\u0d28\u0d4d\u0d26\u0d4d\u0d30 \u0d2e\u0d3e\u0d7c\u0d15\u0d4d\u0d15\u0d31\u0d4d\u0d31\u0d4d", "name:ta": "\u0b95\u0bbf\u0bb0\u0bc1\u0bb7\u0bcd\u0ba3 \u0bb0\u0bbe\u0b9c\u0bc7\u0ba8\u0bcd\u0ba4\u0bbf\u0bb0\u200c \u0bae\u0bbe\u0bb0\u0bcd\u0b95\u0bc6\u0b9f\u0bcd", "network": "Namma Metro", "note": "Contributors are requested to not edit the \"network\" and the \"operator\" tags. (2023/11/08)", "operator": "Bangalore Metro Rail Corporation Limited", "public_transport": "station", "public_transport:version": "2", "railway": "station", "shelter": "yes", "station": "subway", "subway": "yes", "tunnel": "yes", "website": "https://english.brmc.co.in", "wheelchair": "yes"}}, {"type": "node", "id": 6432710301, "lat": 12.9668974, "lon": 77.5745566, "tags": {"code": "CKPE", "lit": "yes", "name": "Chickpete", "name:hi": "\u091a\u093f\u0915\u092a\u0947\u091f\u0947", "name:kn": "\u0c9a\u0cbf\u0c95\u0ccd\u0c95\u0caa\u0cc7\u0c9f\u0cc6", "name:ml": "\u0d1a\u0d3f\u0d15\u0d4d\u0d15\u0d2a\u0d4d\u0d2a\u0d47\u0d1f\u0d4d\u0d1f", "name:ta": "\u0b9a\u0bbf\u0b95\u0bcd\u0b95\u0baa\u0bc7\u0b9f\u0bcd\u0b9f\u0bc7", "network": "Namma Metro", "note": "Contributors are requested to not edit the \"network\" and the \"operator\" tags. (2023/11/08)", "operator": "Bangalore Metro Rail Corporation Limited", "public_transport": "station", "public_transport:version": "2", "railway": "station", "shelter": "yes", "station": "subway", "subway": "yes", "tunnel": "yes", "website": "https://english.brmc.co.in", "wheelchair": "yes"}}, {"type": "node", "id": 6654524744, "lat": 13.0283383, "lon": 77.5414416, "tags": {"name": "E: Maruti Suzuki (RNS)", "operator": "BMRCL", "railway": "subway_entrance", "ref": "E", "wheelchair": "no"}}, {"type": "node", "id": 9049846515, "lat": 12.9354357, "lon": 77.5124063, "tags": {"code": "BGUC", "name": "Jnanabharathi", "name:kn": "\u0c9c\u0ccd\u0c9e\u0cbe\u0ca8 \u0cad\u0cbe\u0cb0\u0ca4\u0cbf", "name:ml": "\u0d1c\u0d4d\u0d1e\u0d3e\u0d28 \u0d2d\u0d3e\u0d30\u0d24\u0d3f", "network": "Namma Metro", "note": "Contributors are requested to not edit the \"network\" and the \"operator\" tags. (2023/11/08)", "operator": "Bangalore Metro Rail Corporation Limited", "public_transport": "station", "public_transport:version": "2", "railway": "station", "shelter": "yes", "station": "subway", "subway": "yes", "website": "https://english.brmc.co.in", "wheelchair": "yes"}}, {"type": "node", "id": 9050797592, "lat": 12.9416715, "lon": 77.5251166, "tags": {"alt_name": "Pantarapalya", "code": "NYHM", "name": "Pantharapalya - Nayandahalli", "name:kn": "\u0caa\u0c82\u0ca4\u0cb0\u0caa\u0cbe\u0cb3\u0ccd\u0caf - \u0ca8\u0cbe\u0caf\u0c82\u0ca1\u0cb9\u0cb3\u0ccd\u0cb3\u0cbf", "name:ml": "\u0d28\u0d3e\u0d2f\u0d23\u0d4d\u0d1f\u0d39\u0d33\u0d4d\u0d33\u0d3f", "network": "Namma Metro", "network:wikidata": "Q279343", "note": "Contributors are requested to not edit the \"network\" and the \"operator\" tags. (2023/11/08)", "old_name": "Nayandahalli", "operator": "Bangalore Metro Rail Corporation Limited", "public_transport": "station", "railway": "station", "station": "subway", "subway": "yes", "website": "https://english.brmc.co.in"}}, {"type": "node", "id": 9051395755, "lat": 12.914689, "lon": 77.4878557, "tags": {"code": "MLSD", "name": "Kengeri Bus Terminal", "name:kn": "\u0c95\u0cc6\u0c82\u0c97\u0cc7\u0cb0\u0cbf \u0cac\u0cb8\u0ccd \u0c9f\u0cb0\u0ccd\u0cae\u0cbf\u0ca8\u0cb2\u0ccd", "name:ml": "\u0d15\u0d46\u0d19\u0d4d\u0d15\u0d47\u0d30\u0d3f \u0d2c\u0d38\u0d4d \u0d1f\u0d46\u0d7c\u0d2e\u0d3f\u0d28\u0d7d", "network": "Namma Metro", "note": "Contributors are requested to not edit the \"network\" and the \"operator\" tags. (2023/11/08)", "operator": "Bangalore Metro Rail Corporation Limited", "public_transport": "station", "railway": "station", "station": "subway", "subway": "yes", "website": "https://english.brmc.co.in"}}, {"type": "node", "id": 9051405243, "lat": 12.9079105, "lon": 77.4765784, "tags": {"code": "KGIT", "name": "Kengeri", "name:kn": "\u0c95\u0cc6\u0c82\u0c97\u0cc7\u0cb0\u0cbf", "name:ml": "\u0d15\u0d46\u0d19\u0d4d\u0d15\u0d47\u0d30\u0d3f", "name:ta": "\u0b95\u0bc6\u0b99\u0bcd\u0b95\u0bc7\u0bb0\u0bbf", "network": "Namma Metro", "note": "Contributors are requested to not edit the \"network\" and the \"operator\" tags. (2023/11/08)", "operator": "Bangalore Metro Rail Corporation Limited", "public_transport": "station", "railway": "station", "station": "subway", "subway": "yes", "website": "https://english.brmc.co.in"}}, {"type": "node", "id": 9051410519, "lat": 12.9365996, "lon": 77.5196788, "tags": {"code": "RRRN", "name": "Rajarajeshwari Nagar", "name:kn": "\u0cb0\u0cbe\u0c9c\u0cb0\u0cbe\u0c9c\u0cc7\u0cb6\u0ccd\u0cb5\u0cb0\u0cbf \u0ca8\u0c97\u0cb0", "name:ml": "\u0d30\u0d3e\u0d1c\u0d30\u0d3e\u0d1c\u0d47\u0d36\u0d4d\u0d35\u0d30\u0d3f \u0d28\u0d17\u0d7c", "network": "Namma Metro", "note": "Contributors are requested to not edit the \"network\" and the \"operator\" tags. (2023/11/08)", "operator": "Bangalore Metro Rail Corporation Limited", "public_transport": "station", "railway": "station", "station": "subway", "subway": "yes", "website": "https://english.brmc.co.in"}}, {"type": "node", "id": 9051417969, "lat": 12.9242505, "lon": 77.4983509, "tags": {"code": "PATG", "name": "Pattanagere", "name:kn": "\u0caa\u0c9f\u0ccd\u0c9f\u0ca3\u0c97\u0cc6\u0cb0\u0cc6", "name:ml": "\u0d2a\u0d1f\u0d4d\u0d1f\u0d28\u0d17\u0d30\u0d46", "network": "Namma Metro", "note": "Contributors are requested to not edit the \"network\" and the \"operator\" tags. (2023/11/08)", "operator": "Bangalore Metro Rail Corporation Limited", "public_transport": "station", "railway": "station", "station": "subway", "subway": "yes", "website": "https://english.brmc.co.in"}}, {"type": "node", "id": 9143702789, "lat": 12.9248043, "lon": 77.4985965}, {"type": "node", "id": 9143702790, "lat": 12.9245888, "lon": 77.4988083}, {"type": "node", "id": 9143702791, "lat": 12.9237301, "lon": 77.4978887}, {"type": "node", "id": 9143702792, "lat": 12.9239456, "lon": 77.4976768}, {"type": "node", "id": 9199245472, "lat": 12.924066, "lon": 77.4982484, "tags": {"name": "A: RV College of Engineering", "name:kn": "\u0caa\u0c9f\u0ccd\u0c9f\u0ca3\u0c97\u0cc6\u0cb0\u0cc6", "operator": "BMRCL", "railway": "subway_entrance", "ref": "A", "wheelchair": "yes"}}, {"type": "node", "id": 9919651773, "lat": 12.8617298, "lon": 77.5299545, "tags": {"code": "APTS", "name": "Silk Institute", "name:kn": "\u0cb0\u0cc7\u0cb7\u0ccd\u0cae\u0cc6 \u0cb8\u0c82\u0cb8\u0ccd\u0ca5\u0cc6", "name:ml": "\u0d38\u0d3f\u0d7d\u0d15\u0d4d\u0d15\u0d4d \u0d07\u0d7b\u0d38\u0d4d\u0d31\u0d4d\u0d31\u0d3f\u0d31\u0d4d\u0d31\u0d4d\u0d2f\u0d42\u0d1f\u0d4d\u0d1f\u0d4d", "name:ta": "\u0b9a\u0bbf\u0bb2\u0bcd\u0b95\u0bcd \u0b87\u0ba9\u0bcd\u0bb8\u0bcd\u0b9f\u0bbf\u0b9f\u0bcd\u0baf\u0bc2\u0b9f\u0bcd", "network": "Namma Metro", "note": "Contributors are requested to not edit the \"network\" and the \"operator\" tags. (2023/11/08)", "operator": "Bangalore Metro Rail Corporation Limited", "platforms": "2", "public_transport": "station", "railway": "station", "shelter": "yes", "station": "subway", "subway": "yes", "wheelchair": "yes"}}, {"type": "node", "id": 9919651774, "lat": 12.8714097, "lon": 77.5383958, "tags": {"code": "TGTP", "name": "Thalaghattapura", "name:kn": "\u0ca4\u0cb2\u0c98\u0c9f\u0ccd\u0c9f\u0caa\u0cc1\u0cb0", "name:ml": "\u0d24\u0d32\u0d18\u0d1f\u0d4d\u0d1f\u0d2a\u0d41\u0d30", "name:ta": "\u0ba4\u0bb2\u0b95\u0b9f\u0bcd\u0b9f\u0baa\u0bc1\u0bb0\u0bbe", "network": "Namma Metro", "note": "Contributors are requested to not edit the \"network\" and the \"operator\" tags. (2023/11/08)", "operator": "Bangalore Metro Rail Corporation Limited", "platforms": "2", "public_transport": "station", "railway": "station", "shelter": "yes", "station": "subway", "subway": "yes", "wheelchair": "yes"}}, {"type": "node", "id": 9919651775, "lat": 12.8774369, "lon": 77.5447414, "tags": {"code": "VJRH", "name": "Vajarahalli", "name:kn": "\u0cb5\u0cbe\u0c9c\u0cb0\u0cb9\u0cb3\u0ccd\u0cb3\u0cbf", "name:ml": "\u0d35\u0d3e\u0d1c\u0d31\u0d39\u0d33\u0d4d\u0d33\u0d3f", "name:ta": "\u0bb5\u0b9c\u0bcd\u0b9c\u0bb0\u0bb9\u0bb2\u0bcd\u0bb2\u0bbf", "network": "Namma Metro", "note": "Contributors are requested to not edit the \"network\" and the \"operator\" tags. (2023/11/08)", "operator": "Bangalore Metro Rail Corporation Limited", "platforms": "2", "public_transport": "station", "railway": "station", "shelter": "yes", "station": "subway", "subway": "yes", "wheelchair": "yes"}}, {"type": "node", "id": 9919651776, "lat": 12.8846435, "lon": 77.5527546, "tags": {"code": "KLPK", "name": "Doddakallasandra", "name:kn": "\u0ca6\u0cca\u0ca1\u0ccd\u0ca1\u0c95\u0cb2\u0ccd\u0cb2\u0cb8\u0c82\u0ca6\u0ccd\u0cb0", "name:ml": "\u0d26\u0d4a\u0d21\u0d4d\u0d21\u0d15\u0d32\u0d4d\u0d32\u0d38\u0d28\u0d4d\u0d26\u0d4d\u0d30", "name:ta": "\u0b9f\u0bca\u0b9f\u0bcd\u0b9f\u0b95\u0bb2\u0bcd\u0bb2\u0b9a\u0ba8\u0bcd\u0ba4\u0bcd\u0bb0\u0bbe", "network": "Namma Metro", "note": "Contributors are requested to not edit the \"network\" and the \"operator\" tags. (2023/11/08)", "operator": "Bangalore Metro Rail Corporation Limited", "platforms": "2", "public_transport": "station", "railway": "station", "shelter": "yes", "station": "subway", "subway": "yes", "wheelchair": "yes"}}, {"type": "node", "id": 9919651777, "lat": 12.8889671, "lon": 77.5626665, "tags": {"code": "APRC", "layer": "1", "lit": "yes", "name": "Konanakunte Cross", "name:kn": "\u0c95\u0ccb\u0ca3\u0ca8\u0c95\u0cc1\u0c82\u0c9f\u0cc6 \u0c95\u0ccd\u0cb0\u0cbe\u0cb8\u0ccd", "name:ml": "\u0d2f\u0d32\u0d1a\u0d4d\u0d1a\u0d47\u0d28\u0d39\u0d33\u0d4d\u0d33\u0d3f", "name:ta": "\u0b95\u0bcb\u0ba9\u0bbe\u0ba9\u0b95\u0bc1\u0ba9\u0bcd\u0b9f\u0bc7\u200c \u0b95\u0bcd\u0bb0\u0bbe\u0bb8\u0bcd", "network": "Namma Metro", "note": "Contributors are requested to not edit the \"network\" and the \"operator\" tags. (2023/11/08)", "operator": "Bangalore Metro Rail Corporation Limited", "platforms": "2", "public_transport": "station", "public_transport:version": "2", "railway": "station", "shelter": "yes", "station": "subway", "subway": "yes", "website": "https://english.brmc.co.in", "wheelchair": "yes"}}, {"type": "node", "id": 9954825906, "lat": 13.0600945, "lon": 77.632058, "tags": {"internet_access": "no", "name": "Thanisandra", "name:kn": "\u0ca5\u0ca3\u0cbf\u0cb8\u0c82\u0ca6\u0ccd\u0cb0", "name:ml": "\u0d25\u0d23\u0d3f\u0d38\u0d28\u0d4d\u0d26\u0d4d\u0d30", "network": "IR", "operator": "SWR", "public_transport": "station", "railway": "station", "ref": "THSA", "train": "yes", "wikidata": "Q85806236", "wikipedia": "en:Thanisandra railway station"}}, {"type": "node", "id": 10105893940, "lat": 13.0006058, "lon": 77.6756104}, {"type": "node", "id": 10105893941, "lat": 13.0005219, "lon": 77.6756139}, {"type": "node", "id": 10105893942, "lat": 13.0005091, "lon": 77.6752864}, {"type": "node", "id": 10252966552, "lat": 13.0005993, "lon": 77.6756492, "tags": {"alt_name": "K R Puram Junction", "internet_access": "wlan", "name": "Krishnarajapuram", "name:kn": "\u0c95\u0cc3\u0cb7\u0ccd\u0ca3\u0cb0\u0cbe\u0c9c\u0caa\u0cc1\u0cb0", "name:ml": "\u0d15\u0d43\u0d37\u0d4d\u0d23\u0d30\u0d3e\u0d1c\u0d2a\u0d41\u0d30\u0d02", "network": "IR", "operator": "SWR", "public_transport": "station", "railway": "station", "ref": "KJM", "train": "yes", "wikidata": "Q6437604", "wikipedia": "en:Krishnarajapuram railway station"}}, {"type": "node", "id": 11231119956, "lat": 13.0283897, "lon": 77.5403086, "tags": {"name": "C: Goraguntepalya", "operator": "BMRCL", "railway": "subway_entrance", "ref": "C", "to": "Gorgantapalaya Shiva Temple", "wheelchair": "no"}}, {"type": "node", "id": 11905876688, "lat": 12.9579406, "lon": 77.5390334}, {"type": "node", "id": 11941173068, "lat": 13.0479536, "lon": 77.5001422, "tags": {"code": "NGSA", "name": "Nagasandra", "name:kn": "\u0ca8\u0cbe\u0c97\u0cb8\u0c82\u0ca6\u0ccd\u0cb0", "name:ml": "\u0d28\u0d3e\u0d17\u0d38\u0d28\u0d4d\u0d26\u0d4d\u0d30", "network": "Namma Metro", "network:wikidata": "Q279343", "note": "Contributors are requested to not edit the \"network\" and the \"operator\" tags. (2023/11/08)", "operator": "Bangalore Metro Rail Corporation Limited", "public_transport": "station", "public_transport:version": "2", "railway": "station", "shelter": "yes", "station": "subway", "subway": "yes", "website": "https://english.brmc.co.in", "wheelchair": "yes", "wikipedia": "en:Nagasandra metro station"}}, {"type": "node", "id": 11941186869, "lat": 13.0232678, "lon": 77.5498751, "tags": {"alt_name": "Yeshwantpura", "code": "YPM", "name": "Yeshwantpur", "name:kn": "\u0caf\u0cb6\u0cb5\u0c82\u0ca4\u0caa\u0cc1\u0cb0", "name:ml": "\u0d2f\u0d36\u0d4d\u0d35\u0d28\u0d4d\u0d24\u0d2a\u0d41\u0d30", "network": "Namma Metro", "network:wikidata": "Q279343", "note": "Contributors are requested to not edit the \"network\" and the \"operator\" tags. (2023/11/08)", "operator": "Bangalore Metro Rail Corporation Limited", "public_transport": "station", "public_transport:version": "2", "railway": "station", "shelter": "yes", "station": "subway", "subway": "yes", "website": "https://english.brmc.co.in", "wheelchair": "yes", "wikipedia": "en:Yeshwanthpur metro station"}}, {"type": "node", "id": 11941186870, "lat": 12.9856503, "lon": 77.7470121, "tags": {"alt_name": "Tree Park", "code": "KDGD", "name": "Kadugodi Tree Park", "name:kn": "\u0c95\u0cbe\u0ca1\u0cc1\u0c97\u0ccb\u0ca1\u0cbf \u0c9f\u0ccd\u0cb0\u0cc0 \u0caa\u0cbe\u0cb0\u0ccd\u0c95\u0ccd", "name:ta": "\u0b95\u0b9f\u0bc1\u0b95\u0bcb\u0b9f\u0bbf \u0bae\u0bb0\u0baa\u0bcd \u0baa\u0bc2\u0b99\u0bcd\u0b95\u0bbe", "network": "Namma Metro", "network:wikidata": "Q279343", "note": "Contributors are requested to not edit the \"network\" and the \"operator\" tags. (2023/11/08)", "old_name": "Kadugodi", "operator": "Bangalore Metro Rail Corporation Limited", "public_transport": "station", "public_transport:version": "2", "railway": "station", "shelter": "yes", "station": "subway", "subway": "yes", "website": "https://english.brmc.co.in", "wheelchair": "yes", "wikipedia": "en:Kadugodi metro station"}}, {"type": "node", "id": 11964711966, "lat": 13.0286709, "lon": 77.5402557}, {"type": "node", "id": 11964711967, "lat": 13.0280618, "lon": 77.5413453}, {"type": "node", "id": 12513661497, "lat": 13.0278951, "lon": 77.5411532, "tags": {"name": "A: Goraguntepalya", "railway": "subway_entrance", "ref": "A"}}, {"type": "node", "id": 12513719440, "lat": 12.9243736, "lon": 77.4981352, "tags": {"name": "B: Dubasipalya", "operator": "BMRCL", "railway": "subway_entrance", "ref": "B", "wheelchair": "yes"}}, {"type": "node", "id": 12514337068, "lat": 12.999655, "lon": 77.6411538, "tags": {"alt_name": "Baiyyappanahalli Terminus", "name": "Sir M Visvesvaraya Terminal", "network": "IR", "operator": "SWR", "public_transport": "station", "railway": "station", "ref": "SMVB", "start_date": "2022-06-06", "train": "yes", "wikidata": "Q112672182"}}, {"type": "node", "id": 12525728518, "lat": 13.0283374, "lon": 77.5404782}, {"type": "node", "id": 12526549717, "lat": 13.0283218, "lon": 77.5414316}, {"type": "node", "id": 12526549718, "lat": 13.0284748, "lon": 77.5411129}, {"type": "node", "id": 12526549726, "lat": 13.028488, "lon": 77.5411209}, {"type": "node", "id": 12526733136, "lat": 13.0283377, "lon": 77.5405395}, {"type": "node", "id": 12526733137, "lat": 13.0283019, "lon": 77.5406018}, {"type": "node", "id": 12526733138, "lat": 13.0283743, "lon": 77.5405617}, {"type": "node", "id": 12526733139, "lat": 13.028339, "lon": 77.5406244}, {"type": "node", "id": 12526733140, "lat": 13.0282778, "lon": 77.5412785}, {"type": "node", "id": 12526733163, "lat": 13.0284545, "lon": 77.5411005}, {"type": "node", "id": 12526733164, "lat": 13.0285014, "lon": 77.5410193}, {"type": "node", "id": 12526733165, "lat": 13.0287274, "lon": 77.5405026}, {"type": "node", "id": 12526843248, "lat": 13.028532, "lon": 77.5410379}, {"type": "node", "id": 12526843250, "lat": 13.0282741, "lon": 77.5405849}, {"type": "node", "id": 12765503436, "lat": 13.0284782, "lon": 77.541138}, {"type": "node", "id": 12765503437, "lat": 13.0284816, "lon": 77.541117}, {"type": "way", "id": 408518065, "nodes": [4104269204, 4104269205, 11905876688, 4104269206, 4104269207, 4104269204], "tags": {"area": "yes", "name": "Krishnadevaraya Halt", "name:kn": "\u0c95\u0cc3\u0cb7\u0ccd\u0ca3\u0ca6\u0cc7\u0cb5\u0cb0\u0cbe\u0caf", "operator": "SWR", "public_transport": "station", "railway": "station"}}, {"type": "way", "id": 989277812, "nodes": [9143702792, 9143702791, 9199245472, 9143702790, 9143702789, 12513719440, 9143702792], "tags": {"building": "train_station", "layer": "1", "lit": "yes", "public_transport": "station", "railway": "station", "station": "subway", "subway": "yes"}}, {"type": "way", "id": 1104358047, "nodes": [1177192092, 10105893940, 10105893941, 10105893942, 1177192092], "tags": {"alt_name": "K R Puram Junction", "building": "train_station", "internet_access": "wlan", "name": "Krishnarajapuram", "name:kn": "\u0c95\u0cc3\u0cb7\u0ccd\u0ca3\u0cb0\u0cbe\u0c9c\u0caa\u0cc1\u0cb0", "network": "IR", "operator": "SWR", "public_transport": "station", "railway": "station", "train": "yes", "wikidata": "Q6437604", "wikimedia_commons": "Category:Krishnarajapuram railway station", "wikipedia": "en:Krishnarajapuram railway station"}}, {"type": "way", "id": 1353733806, "nodes": [4887713698, 4887713699, 12526843250, 12526733137, 12526733139, 4887713700, 4887713695, 4887713694, 4887713689, 4887713685, 4887713684, 4887713686, 4887713687, 12513661497, 4887713682, 4887713683, 4887713688, 4887713711, 4887713715, 4887713716, 11964711967, 4887713717, 6410706694, 12526733140, 4887713708, 4887713706, 12526733163, 12526549718, 12765503437, 12526549726, 12765503436, 4887713702, 12526549717, 6654524744, 4887713704, 4887713705, 12526843248, 12526733164, 4887713707, 4887713709, 12526733165, 4887713713, 4887713718, 11964711966, 4887713719, 4887713712, 4887713710, 4887713701, 12526733138, 12526733136, 4887713697, 12525728518, 4887713696, 11231119956, 4887713698], "tags": {"code": "YPI", "name": "Goraguntepalya", "name:kn": "\u0c97\u0cca\u0cb0\u0c97\u0cc1\u0c82\u0c9f\u0cc6\u0caa\u0cbe\u0cb3\u0ccd\u0caf", "name:ml": "\u0d17\u0d4b\u0d30\u0d17\u0d41\u0d23\u0d4d\u0d1f\u0d46\u0d2a\u0d3e\u0d7e\u0d2f", "network": "Namma Metro", "network:wikidata": "Q279343", "note": "Contributors are requested to not edit the \"network\" and the \"operator\" tags. (2023/11/08)", "old_name": "Yeshwantpur Industry", "operator": "Bangalore Metro Rail Corporation Limited", "public_transport": "station", "public_transport:version": "2", "railway": "station", "shelter": "yes", "station": "subway", "subway": "yes", "website": "https://english.brmc.co.in", "wheelchair": "yes"}}]}